{
  "type": "FeatureCollection",
  "features": [
    {
      "type": "Feature",
      "properties": {
        "norad_id": 46805,
        "name": "COSMOS 2547 (705K)",
        "group": "glo-ops",
        "lat": 41.84632928928603,
        "lon": -136.60483558171333,
        "alt_km": 19140.72133649317,
        "timestamp": "2025-12-27T17:24:57.666277+00:00",
        "meta_object_name": "COSMOS 2547 (705K)",
        "meta_object_id": "2020-075A",
        "meta_epoch": "2025-12-27T04:39:45.573408",
        "meta_mean_motion": 2.13100125,
        "meta_eccentricity": 0.0006076,
        "meta_inclination": 64.597,
        "meta_ra_of_asc_node": 198.2135,
        "meta_arg_of_pericenter": 227.2571,
        "meta_mean_anomaly": 132.747,
        "meta_ephemeris_type": 0,
        "meta_classification_type": "U",
        "meta_norad_cat_id": 46805,
        "meta_element_set_no": 999,
        "meta_rev_at_epoch": 4024,
        "meta_bstar": 0,
        "meta_mean_motion_dot": 1.2e-06,
        "meta_mean_motion_ddot": 0,
        "tle_line1": "1 46805U 20075A   25361.19427747  .00000120  00000+0  00000+0 0  9996",
        "tle_line2": "2 46805  64.5970 198.2135 0006076 227.2571 132.7470  2.13100125 40249"
      },
      "geometry": {
        "type": "Point",
        "coordinates": [
          -136.60483558171333,
          41.84632928928603
        ]
      }
    },
    {
      "type": "Feature",
      "properties": {
        "norad_id": 52984,
        "name": "COSMOS 2557 (706K)",
        "group": "glo-ops",
        "lat": -62.359883900180314,
        "lon": -105.67179424026934,
        "alt_km": 19101.8508190501,
        "timestamp": "2025-12-27T17:24:57.666289+00:00",
        "meta_object_name": "COSMOS 2557 (706K)",
        "meta_object_id": "2022-075A",
        "meta_epoch": "2025-12-25T22:50:27.414816",
        "meta_mean_motion": 2.13102015,
        "meta_eccentricity": 0.00135372,
        "meta_inclination": 64.4024,
        "meta_ra_of_asc_node": 320.5875,
        "meta_arg_of_pericenter": 278.4992,
        "meta_mean_anomaly": 81.3515,
        "meta_ephemeris_type": 0,
        "meta_classification_type": "U",
        "meta_norad_cat_id": 52984,
        "meta_element_set_no": 999,
        "meta_rev_at_epoch": 2702,
        "meta_bstar": 0,
        "meta_mean_motion_dot": -3.5e-07,
        "meta_mean_motion_ddot": 0,
        "tle_line1": "1 52984U 22075A   25359.95170619 -.00000035  00000+0  00000+0 0  9993",
        "tle_line2": "2 52984  64.4024 320.5875 0013537 278.4992  81.3515  2.13102015 27029"
      },
      "geometry": {
        "type": "Point",
        "coordinates": [
          -105.67179424026934,
          -62.359883900180314
        ]
      }
    },
    {
      "type": "Feature",
      "properties": {
        "norad_id": 54031,
        "name": "COSMOS 2559 (707K)",
        "group": "glo-ops",
        "lat": 50.97281229275453,
        "lon": -3.1158542775139444,
        "alt_km": 19143.63001006292,
        "timestamp": "2025-12-27T17:24:57.666300+00:00",
        "meta_object_name": "COSMOS 2559 (707K)",
        "meta_object_id": "2022-130A",
        "meta_epoch": "2025-12-27T04:17:20.598432",
        "meta_mean_motion": 2.13101168,
        "meta_eccentricity": 0.0011445,
        "meta_inclination": 64.3739,
        "meta_ra_of_asc_node": 320.6332,
        "meta_arg_of_pericenter": 191.4808,
        "meta_mean_anomaly": 168.4977,
        "meta_ephemeris_type": 0,
        "meta_classification_type": "U",
        "meta_norad_cat_id": 54031,
        "meta_element_set_no": 999,
        "meta_rev_at_epoch": 2502,
        "meta_bstar": 0,
        "meta_mean_motion_dot": -3.9e-07,
        "meta_mean_motion_ddot": 0,
        "tle_line1": "1 54031U 22130A   25361.17871063 -.00000039  00000+0  00000+0 0  9992",
        "tle_line2": "2 54031  64.3739 320.6332 0011445 191.4808 168.4977  2.13101168 25026"
      },
      "geometry": {
        "type": "Point",
        "coordinates": [
          -3.1158542775139444,
          50.97281229275453
        ]
      }
    },
    {
      "type": "Feature",
      "properties": {
        "norad_id": 54377,
        "name": "COSMOS 2564 (761)",
        "group": "glo-ops",
        "lat": 0.733130139637181,
        "lon": 18.057990161582993,
        "alt_km": 19110.486541521208,
        "timestamp": "2025-12-27T17:24:57.666311+00:00",
        "meta_object_name": "COSMOS 2564 (761)",
        "meta_object_id": "2022-161A",
        "meta_epoch": "2025-12-27T00:32:50.727840",
        "meta_mean_motion": 2.13101958,
        "meta_eccentricity": 0.00085395,
        "meta_inclination": 64.7392,
        "meta_ra_of_asc_node": 198.4243,
        "meta_arg_of_pericenter": 203.4322,
        "meta_mean_anomaly": 156.5843,
        "meta_ephemeris_type": 0,
        "meta_classification_type": "U",
        "meta_norad_cat_id": 54377,
        "meta_element_set_no": 999,
        "meta_rev_at_epoch": 2396,
        "meta_bstar": 0,
        "meta_mean_motion_dot": 1.19e-06,
        "meta_mean_motion_ddot": 0,
        "tle_line1": "1 54377U 22161A   25361.02280935  .00000119  00000+0  00000+0 0  9993",
        "tle_line2": "2 54377  64.7392 198.4243 0008539 203.4322 156.5843  2.13101958 23963"
      },
      "geometry": {
        "type": "Point",
        "coordinates": [
          18.057990161582993,
          0.733130139637181
        ]
      }
    },
    {
      "type": "Feature",
      "properties": {
        "norad_id": 57517,
        "name": "COSMOS 2569 (703K)",
        "group": "glo-ops",
        "lat": 10.14096780939669,
        "lon": -106.31890202332139,
        "alt_km": 19142.39194999021,
        "timestamp": "2025-12-27T17:24:57.666322+00:00",
        "meta_object_name": "COSMOS 2569 (703K)",
        "meta_object_id": "2023-114A",
        "meta_epoch": "2025-12-27T00:52:02.174592",
        "meta_mean_motion": 2.13103907,
        "meta_eccentricity": 0.0011067,
        "meta_inclination": 65.2014,
        "meta_ra_of_asc_node": 78.4303,
        "meta_arg_of_pericenter": 287.3137,
        "meta_mean_anomaly": 72.6114,
        "meta_ephemeris_type": 0,
        "meta_classification_type": "U",
        "meta_norad_cat_id": 57517,
        "meta_element_set_no": 999,
        "meta_rev_at_epoch": 1859,
        "meta_bstar": 0,
        "meta_mean_motion_dot": -1.2e-07,
        "meta_mean_motion_ddot": 0,
        "tle_line1": "1 57517U 23114A   25361.03613628 -.00000012  00000+0  00000+0 0  9994",
        "tle_line2": "2 57517  65.2014  78.4303 0011067 287.3137  72.6114  2.13103907 18596"
      },
      "geometry": {
        "type": "Point",
        "coordinates": [
          -106.31890202332139,
          10.14096780939669
        ]
      }
    },
    {
      "type": "Feature",
      "properties": {
        "norad_id": 63130,
        "name": "COSMOS 2584 (704K)",
        "group": "glo-ops",
        "lat": -61.55883520667846,
        "lon": -41.935324668494246,
        "alt_km": 19120.092909681345,
        "timestamp": "2025-12-27T17:24:57.666337+00:00",
        "meta_object_name": "COSMOS 2584 (704K)",
        "meta_object_id": "2025-042A",
        "meta_epoch": "2025-12-24T02:34:25.549824",
        "meta_mean_motion": 2.13102981,
        "meta_eccentricity": 0.00077651,
        "meta_inclination": 64.9819,
        "meta_ra_of_asc_node": 78.7588,
        "meta_arg_of_pericenter": 220.6893,
        "meta_mean_anomaly": 139.3012,
        "meta_ephemeris_type": 0,
        "meta_classification_type": "U",
        "meta_norad_cat_id": 63130,
        "meta_element_set_no": 999,
        "meta_rev_at_epoch": 631,
        "meta_bstar": 0,
        "meta_mean_motion_dot": 1e-08,
        "meta_mean_motion_ddot": 0,
        "tle_line1": "1 63130U 25042A   25358.10724016  .00000001  00000+0  00000+0 0  9999",
        "tle_line2": "2 63130  64.9819  78.7588 0007765 220.6893 139.3012  2.13102981  6316"
      },
      "geometry": {
        "type": "Point",
        "coordinates": [
          -41.935324668494246,
          -61.55883520667846
        ]
      }
    },
    {
      "type": "Feature",
      "properties": {
        "norad_id": 65590,
        "name": "COSMOS 2596 (708K)",
        "group": "glo-ops",
        "lat": 13.002715450010687,
        "lon": -32.80229247267653,
        "alt_km": 19114.63958134891,
        "timestamp": "2025-12-27T17:24:57.666348+00:00",
        "meta_object_name": "COSMOS 2596 (708K)",
        "meta_object_id": "2025-206B",
        "meta_epoch": "2025-12-27T06:55:12.849888",
        "meta_mean_motion": 2.13100119,
        "meta_eccentricity": 0.0014053,
        "meta_inclination": 64.7362,
        "meta_ra_of_asc_node": 320.9699,
        "meta_arg_of_pericenter": 307.7312,
        "meta_mean_anomaly": 91.0332,
        "meta_ephemeris_type": 0,
        "meta_classification_type": "U",
        "meta_norad_cat_id": 65590,
        "meta_element_set_no": 999,
        "meta_rev_at_epoch": 225,
        "meta_bstar": 0,
        "meta_mean_motion_dot": -3.8e-07,
        "meta_mean_motion_ddot": 0,
        "tle_line1": "1 65590U 25206B   25361.28834317 -.00000038  00000+0  00000+0 0  9993",
        "tle_line2": "2 65590  64.7362 320.9699 0014053 307.7312  91.0332  2.13100119  2254"
      },
      "geometry": {
        "type": "Point",
        "coordinates": [
          -32.80229247267653,
          13.002715450010687
        ]
      }
    }
  ]
}